[
    {
        "Altitude(m)": 624792.7414873249,
        "Argument of Periapsis(deg)": 0.0,
        "Eccentricity": 0.0,
        "Inclination(deg)": 60.0,
        "Latitude(deg)": -59.14699484921048,
        "Longitude(deg)": 124.02631719977843,
        "Mean Anomaly(deg)": -98.18180000000004,
        "RAAN(deg)": 330.0,
        "Satellite Name": "Test1 1468",
        "Satellite Number": 1468,
        "Semi-Major Axis(m)": 6980739.136638005,
        "Time(s)": 0
    },
    {
        "Altitude(m)": 624842.1339415549,
        "Argument of Periapsis(deg)": 0.00010418945913296404,
        "Eccentricity": 0.0,
        "Inclination(deg)": 60.0,
        "Latitude(deg)": -59.28907947021916,
        "Longitude(deg)": 125.15581773267174,
        "Mean Anomaly(deg)": -97.56169385453819,
        "RAAN(deg)": 329.9995799508602,
        "Satellite Name": "Test1 1468",
        "Satellite Number": 1468,
        "Semi-Major Axis(m)": 6980739.136638005,
        "Time(s)": 10
    }
]